NORAD_CAT_ID,OBJECT_NAME,OBJECT_TYPE,EPOCH,MEAN_MOTION,ECCENTRICITY,INCLINATION,RA_OF_ASC_NODE,ARG_OF_PERICENTER,MEAN_ANOMALY,BSTAR,MEAN_MOTION_DOT,MEAN_MOTION_DDOT,TLE_LINE0,TLE_LINE1,TLE_LINE2,SEMIMAJOR_AXIS,PERIOD,APOGEE,PERIGEE,DECAYED
55272.0,STARLINK-5310,PAYLOAD,2024-04-22 23:33:43,14.99137331,0.0002594,70.0007,333.3712,246.449,113.6397,0.00014376,1.658e-05,0.0,0 STARLINK-5310,1 55272U 23010D   24113.98175249  .00001658  00000-0  14376-3 0  9997,2 55272  70.0007 333.3712 0002594 246.4490 113.6397 14.99137331 70073,6947.697,96.055,571.365,567.76,0.0
55272.0,STARLINK-5310,PAYLOAD,2024-04-23 20:22:47,14.9913639,0.0002631,70.0007,331.181,252.3623,107.7249,0.00014354,1.656e-05,0.0,0 STARLINK-5310,1 55272U 23010D   24114.84916486  .00001656  00000-0  14354-3 0  9993,2 55272  70.0007 331.1810 0002631 252.3623 107.7249 14.99136390 69896,6947.7,96.055,571.393,567.737,0.0
55272.0,STARLINK-5310,PAYLOAD,2024-04-23 21:58:52,14.99135795,0.0002568,70.0006,331.0123,248.9445,111.144,0.00012692,1.453e-05,0.0,0 STARLINK-5310,1 55272U 23010D   24114.91588976  .00001453  00000-0  12692-3 0  9998,2 55272  70.0006 331.0123 0002568 248.9445 111.1440 14.99135795 70211,6947.702,96.055,571.351,567.783,0.0
55272.0,STARLINK-5310,PAYLOAD,2024-04-23 23:34:57,14.9915324,0.0002563,70.0005,330.844,252.4363,107.6516,-0.00019057,-2.416e-05,0.0,0 STARLINK-5310,1 55272U 23010D   24114.98260749 -.00002416  00000-0 -19057-3 0  9994,2 55272  70.0005 330.8440 0002563 252.4363 107.6516 14.99153240 69917,6947.648,96.054,571.294,567.733,0.0
55272.0,STARLINK-5310,PAYLOAD,2024-04-24 20:24:02,14.99137884,0.0002638,70.0009,328.6546,243.5416,116.5473,8.9672e-05,9.99e-06,0.0,0 STARLINK-5310,1 55272U 23010D   24115.85002537  .00000999  00000-0  89672-4 0  9993,2 55272  70.0009 328.6546 0002638 243.5416 116.5473 14.99137884 70049,6947.696,96.055,571.394,567.728,0.0
55272.0,STARLINK-5310,PAYLOAD,2024-04-24 22:00:06,14.99151092,0.0002668,70.0006,328.4855,249.0127,111.0747,-0.00020779,-2.625e-05,0.0,0 STARLINK-5310,1 55272U 23010D   24115.91674630 -.00002625  00000-0 -20779-3 0  9991,2 55272  70.0006 328.4855 0002668 249.0127 111.0747 14.99151092 70366,6947.655,96.054,571.374,567.666,0.0
55272.0,STARLINK-5310,PAYLOAD,2024-04-24 23:36:12,14.9913881,0.000275,70.0004,328.3168,252.8058,107.2801,2.7192e-05,2.38e-06,0.0,0 STARLINK-5310,1 55272U 23010D   24115.98347416  .00000238  00000-0  27192-4 0  9990,2 55272  70.0004 328.3168 0002750 252.8058 107.2801 14.99138810 70379,6947.693,96.055,571.468,567.647,0.0
55272.0,STARLINK-5310,PAYLOAD,2024-04-25 20:25:17,14.99130837,0.0002703,70.0008,326.1276,247.6139,112.4734,-4.9583e-06,-1.54e-06,0.0,0 STARLINK-5310,1 55272U 23010D   24116.85089451 -.00000154  00000-0 -49583-5 0  9997,2 55272  70.0008 326.1276 0002703 247.6139 112.4734 14.99130837 70193,6947.717,96.056,571.46,567.705,0.0
55272.0,STARLINK-5310,PAYLOAD,2024-04-25 22:01:22,14.99130847,0.0002726,70.0007,325.9592,248.7305,111.3564,-4.2603e-05,-6.13e-06,0.0,0 STARLINK-5310,1 55272U 23010D   24116.91761962 -.00000613  00000-0 -42603-4 0  9993,2 55272  70.0007 325.9592 0002726 248.7305 111.3564 14.99130847 70518,6947.717,96.056,571.476,567.688,0.0
55272.0,STARLINK-5310,PAYLOAD,2024-04-26 14:02:11,14.99139333,0.0002995,70.0,324.2726,265.203,94.8788,0.00012885,1.477e-05,0.0,0 STARLINK-5310,1 55272U 23010D   24117.58485064  .00001477  00000-0  12885-3 0  9998,2 55272  70.0000 324.2726 0002995 265.2030  94.8788 14.99139333 70308,6947.691,96.055,571.637,567.475,0.0
55272.0,STARLINK-5310,PAYLOAD,2024-04-26 22:02:35,14.99147406,0.0003029,69.9993,323.4295,266.738,93.3433,0.00019055,2.229e-05,0.0,0 STARLINK-5310,1 55272U 23010D   24117.91846397  .00002229  00000-0  19055-3 0  9997,2 55272  69.9993 323.4295 0003029 266.7380  93.3433 14.99147406 70661,6947.666,96.055,571.636,567.427,0.0
55272.0,STARLINK-5310,PAYLOAD,2024-04-26 23:38:40,14.99148992,0.0002898,69.9996,323.2631,261.4388,98.6443,0.00015919,1.847e-05,0.0,0 STARLINK-5310,1 55272U 23010D   24117.98518756  .00001847  00000-0  15919-3 0  9999,2 55272  69.9996 323.2631 0002898 261.4388  98.6443 14.99148992 70366,6947.661,96.054,571.54,567.513,0.0
55272.0,STARLINK-5310,PAYLOAD,2024-04-27 14:03:25,14.99139879,0.0003027,69.9999,321.7455,267.5996,92.4817,0.00015471,1.792e-05,0.0,0 STARLINK-5310,1 55272U 23010D   24118.58570802  .00001792  00000-0  15471-3 0  9998,2 55272  69.9999 321.7455 0003027 267.5996  92.4817 14.99139879 70768,6947.69,96.055,571.658,567.451,0.0
55272.0,STARLINK-5310,PAYLOAD,2024-04-27 20:27:45,14.99140151,0.000353,69.9982,321.0716,275.4473,84.6284,9.0387e-05,1.008e-05,0.0,0 STARLINK-5310,1 55272U 23010D   24118.85260526  .00001008  00000-0  90387-4 0  9997,2 55272  69.9982 321.0716 0003530 275.4473  84.6284 14.99140151 70496,6947.689,96.055,572.006,567.101,0.0
55272.0,STARLINK-5310,PAYLOAD,2024-04-27 22:03:50,14.99137777,0.0002957,69.9997,320.905,263.7287,96.3536,9.1364e-05,1.02e-05,0.0,0 STARLINK-5310,1 55272U 23010D   24118.91933049  .00001020  00000-0  91364-4 0  9991,2 55272  69.9997 320.9050 0002957 263.7287  96.3536 14.99137777 70812,6947.696,96.055,571.615,567.507,0.0
55272.0,STARLINK-5310,PAYLOAD,2024-04-28 14:04:40,14.99134938,0.0003063,69.9995,319.2202,269.837,90.2438,-1.946e-05,-3.31e-06,0.0,0 STARLINK-5310,1 55272U 23010D   24119.58657420 -.00000331  00000-0 -19460-4 0  9994,2 55272  69.9995 319.2202 0003063 269.8370  90.2438 14.99134938 70910,6947.705,96.055,571.698,567.442,0.0
55272.0,STARLINK-5310,PAYLOAD,2024-04-28 20:29:00,14.9912869,0.000296,69.9993,318.5458,266.9,93.1821,6.0693e-05,6.46e-06,0.0,0 STARLINK-5310,1 55272U 23010D   24119.85347293  .00000646  00000-0  60693-4 0  9999,2 55272  69.9993 318.5458 0002960 266.9000  93.1821 14.99128690 70642,6947.724,96.056,571.646,567.533,0.0
55272.0,STARLINK-5310,PAYLOAD,2024-04-28 22:05:04,14.99137856,0.0003005,69.9991,318.3772,269.6978,90.3837,-8.3271e-05,-1.108e-05,0.0,0 STARLINK-5310,1 55272U 23010D   24119.92019427 -.00001108  00000-0 -83271-4 0  9995,2 55272  69.9991 318.3772 0003005 269.6978  90.3837 14.99137856 70967,6947.696,96.055,571.649,567.473,0.0
55272.0,STARLINK-5310,PAYLOAD,2024-04-29 06:05:29,14.99140564,0.0002892,69.9993,317.5353,267.8241,92.2587,-5.5082e-05,-7.65e-06,0.0,0 STARLINK-5310,1 55272U 23010D   24120.25381147 -.00000765  00000-0 -55082-4 0  9991,2 55272  69.9993 317.5353 0002892 267.8241  92.2587 14.99140564 70706,6947.687,96.055,571.562,567.543,0.0
55272.0,STARLINK-5310,PAYLOAD,2024-04-29 14:05:53,14.99142493,0.0003111,69.9986,316.6916,272.3098,87.7705,5.5763e-05,5.86e-06,0.0,0 STARLINK-5310,1 55272U 23010D   24120.58742623  .00000586  00000-0  55763-4 0  9992,2 55272  69.9986 316.6916 0003111 272.3098  87.7705 14.99142493 71063,6947.681,96.055,571.708,567.385,0.0
55272.0,STARLINK-5310,PAYLOAD,2024-04-29 22:06:18,14.99144055,0.0003101,69.9987,315.8494,272.1613,87.9191,7.0321e-05,7.63e-06,0.0,0 STARLINK-5310,1 55272U 23010D   24120.92104408  .00000763  00000-0  70321-4 0  9997,2 55272  69.9987 315.8494 0003101 272.1613  87.9191 14.99144055 71119,6947.677,96.055,571.696,567.387,0.0
55272.0,STARLINK-5310,PAYLOAD,2024-04-29 23:42:23,14.99145374,0.0003102,69.9987,315.6809,272.1074,87.973,8.3063e-05,9.19e-06,0.0,0 STARLINK-5310,1 55272U 23010D   24120.98776669  .00000919  00000-0  83063-4 0  9997,2 55272  69.9987 315.6809 0003102 272.1074  87.9730 14.99145374 70819,6947.673,96.055,571.693,567.382,0.0
55272.0,STARLINK-5310,PAYLOAD,2024-04-30 14:07:08,14.99137547,0.00031,69.9988,314.1642,270.8922,89.1883,7.2921e-05,7.95e-06,0.0,0 STARLINK-5310,1 55272U 23010D   24121.58828721  .00000795  00000-0  72921-4 0  9994,2 55272  69.9988 314.1642 0003100 270.8922  89.1883 14.99137547 71215,6947.697,96.055,571.716,567.408,0.0
55272.0,STARLINK-5310,PAYLOAD,2024-04-30 20:31:27,14.99137699,0.0003118,69.9988,313.4905,270.353,89.7272,6.6912e-05,7.22e-06,0.0,0 STARLINK-5310,1 55272U 23010D   24121.85518327  .00000722  00000-0  66912-4 0  9995,2 55272  69.9988 313.4905 0003118 270.3530  89.7272 14.99137699 70943,6947.696,96.055,571.728,567.395,0.0
55272.0,STARLINK-5310,PAYLOAD,2024-04-30 22:07:32,14.99137879,0.0003118,69.9988,313.322,270.3775,89.7027,6.7048e-05,7.23e-06,0.0,0 STARLINK-5310,1 55272U 23010D   24121.92190716  .00000723  00000-0  67048-4 0  9993,2 55272  69.9988 313.3220 0003118 270.3775  89.7027 14.99137879 71267,6947.696,96.055,571.727,567.394,0.0
55272.0,STARLINK-5310,PAYLOAD,2024-05-01 12:32:17,14.99140077,0.0003059,69.9991,311.8061,270.2287,89.8522,-2.4325e-05,-3.9e-06,0.0,0 STARLINK-5310,1 55272U 23010D   24122.52242367 -.00000390  00000-0 -24325-4 0  9993,2 55272  69.9991 311.8061 0003059 270.2287  89.8522 14.99140077 71353,6947.689,96.055,571.679,567.429,0.0
55272.0,STARLINK-5310,PAYLOAD,2024-05-01 18:56:37,14.99141794,0.0003072,69.999,311.132,269.8682,90.2125,-1.9448e-05,-3.31e-06,0.0,0 STARLINK-5310,1 55272U 23010D   24122.78931788 -.00000331  00000-0 -19448-4 0  9998,2 55272  69.9990 311.1320 0003072 269.8682  90.2125 14.99141794 71397,6947.684,96.055,571.683,567.414,0.0
55272.0,STARLINK-5310,PAYLOAD,2024-05-02 12:33:31,14.99138364,0.0003125,69.9987,309.2786,269.8201,90.26,9.057e-06,1.7e-07,0.0,0 STARLINK-5310,1 55272U 23010D   24123.52328191  .00000017  00000-0  90570-5 0  9994,2 55272  69.9987 309.2786 0003125 269.8201  90.2600 14.99138364 71198,6947.694,96.055,571.73,567.388,0.0
55272.0,STARLINK-5310,PAYLOAD,2024-05-02 14:09:36,14.99137931,0.000313,69.9987,309.1101,269.8334,90.2467,4.265e-06,-4.2e-07,0.0,0 STARLINK-5310,1 55272U 23010D   24123.59000628 -.00000042  00000-0  42650-5 0  9998,2 55272  69.9987 309.1101 0003130 269.8334  90.2467 14.99137931 71517,6947.696,96.055,571.735,567.386,0.0
55272.0,STARLINK-5310,PAYLOAD,2024-05-03 12:34:45,14.99137371,0.0003016,69.9984,306.7516,269.9556,90.1258,1.6218e-05,1.04e-06,0.0,0 STARLINK-5310,1 55272U 23010D   24124.52414173  .00000104  00000-0  16218-4 0  9994,2 55272  69.9984 306.7516 0003016 269.9556  90.1258 14.99137371 71343,6947.697,96.055,571.658,567.467,0.0
